NORAD_CAT_ID,OBJECT_NAME,OBJECT_TYPE,EPOCH,MEAN_MOTION,ECCENTRICITY,INCLINATION,RA_OF_ASC_NODE,ARG_OF_PERICENTER,MEAN_ANOMALY,BSTAR,MEAN_MOTION_DOT,MEAN_MOTION_DDOT,TLE_LINE0,TLE_LINE1,TLE_LINE2,SEMIMAJOR_AXIS,PERIOD,APOGEE,PERIGEE,DECAYED
50186.0,STARLINK-3274,PAYLOAD,2024-01-09 18:34:53,15.08841063,0.0001343,53.2155,205.1868,96.3766,263.7379,3.8581e-05,3.26e-06,0.0,0 STARLINK-3274,1 50186U 21125AG  24009.77423091  .00000326  00000-0  38581-4 0  9999,2 50186  53.2155 205.1868 0001343  96.3766 263.7379 15.08841063117205,6917.877,95.437,540.671,538.813,0.0
50186.0,STARLINK-3274,PAYLOAD,2024-01-09 23:21:02,15.08840449,0.0001334,53.2155,204.295,92.2038,267.9107,6.7575e-05,7.88e-06,0.0,0 STARLINK-3274,1 50186U 21125AG  24009.97295040  .00000788  00000-0  67575-4 0  9999,2 50186  53.2155 204.2950 0001334  92.2038 267.9107 15.08840449117239,6917.879,95.438,540.667,538.821,0.0
50186.0,STARLINK-3274,PAYLOAD,2024-01-10 18:25:41,15.08817852,0.0001425,53.2161,200.7274,87.3967,272.7188,0.00024668,3.638e-05,0.0,0 STARLINK-3274,1 50186U 21125AG  24010.76783920  .00003638  00000-0  24668-3 0  9999,2 50186  53.2161 200.7274 0001425  87.3967 272.7188 15.08817852116888,6917.948,95.439,540.799,538.827,0.0
50186.0,STARLINK-3274,PAYLOAD,2024-01-10 20:01:04,15.08836484,0.0001339,53.2163,200.4303,83.5538,276.5607,2.1404e-05,5.3e-07,0.0,0 STARLINK-3274,1 50186U 21125AG  24010.83407625  .00000053  00000-0  21404-4 0  9996,2 50186  53.2163 200.4303 0001339  83.5538 276.5607 15.08836484116897,6917.891,95.438,540.682,538.83,0.0
50186.0,STARLINK-3274,PAYLOAD,2024-01-11 11:54:55,15.08841466,0.0001358,53.2168,197.4567,91.5646,268.5501,2.227e-05,6.7e-07,0.0,0 STARLINK-3274,1 50186U 21125AG  24011.49647391  .00000067  00000-0  22270-4 0  9992,2 50186  53.2168 197.4567 0001358  91.5646 268.5501 15.08841466117463,6917.876,95.437,540.68,538.801,0.0
50186.0,STARLINK-3274,PAYLOAD,2024-01-11 19:51:50,15.08846586,0.0001358,53.2166,195.9699,90.9765,269.1382,8.5969e-05,1.081e-05,0.0,0 STARLINK-3274,1 50186U 21125AG  24011.82766748  .00001081  00000-0  85969-4 0  9998,2 50186  53.2166 195.9699 0001358  90.9765 269.1382 15.08846586117041,6917.86,95.437,540.665,538.786,0.0
50186.0,STARLINK-3274,PAYLOAD,2024-01-12 11:45:42,15.08837132,0.0001374,53.2165,192.999,93.3412,266.7738,5.8954e-05,6.5e-06,0.0,0 STARLINK-3274,1 50186U 21125AG  24012.49007409  .00000650  00000-0  58954-4 0  9999,2 50186  53.2165 192.9990 0001374  93.3412 266.7738 15.08837132117141,6917.889,95.438,540.705,538.804,0.0
50186.0,STARLINK-3274,PAYLOAD,2024-01-12 18:07:15,15.08834207,0.000148,53.2173,191.8087,84.8095,275.3066,1.1054e-05,-1.12e-06,0.0,0 STARLINK-3274,1 50186U 21125AG  24012.75503894 -.00000112  00000-0  11054-4 0  9991,2 50186  53.2173 191.8087 0001480  84.8095 275.3066 15.08834207117651,6917.898,95.438,540.787,538.739,0.0
50186.0,STARLINK-3274,PAYLOAD,2024-01-13 14:47:16,15.08837314,0.0001397,53.2173,187.9415,105.6855,254.4292,-6.2956e-05,-1.29e-05,0.0,0 STARLINK-3274,1 50186U 21125AG  24013.61616130 -.00001290  00000-0 -62956-4 0  9991,2 50186  53.2173 187.9415 0001397 105.6855 254.4292 15.08837314117780,6917.889,95.438,540.72,538.787,0.0
50186.0,STARLINK-3274,PAYLOAD,2024-01-13 21:08:48,15.08838017,0.0001378,53.2168,186.7521,98.8896,261.2253,-3.6956e-05,-8.76e-06,0.0,0 STARLINK-3274,1 50186U 21125AG  24013.88112015 -.00000876  00000-0 -36956-4 0  9993,2 50186  53.2168 186.7521 0001378  98.8896 261.2253 15.08838017117353,6917.886,95.438,540.705,538.798,0.0
50186.0,STARLINK-3274,PAYLOAD,2024-01-14 14:38:02,15.08838882,0.0001268,53.2166,183.4814,96.7026,263.4111,0.00011826,1.595e-05,0.0,0 STARLINK-3274,1 50186U 21125AG  24014.60975610  .00001595  00000-0  11826-3 0  9997,2 50186  53.2166 183.4814 0001268  96.7026 263.4111 15.08838882117931,6917.884,95.438,540.626,538.872,0.0
50186.0,STARLINK-3274,PAYLOAD,2024-01-14 16:13:25,15.08840732,0.0001309,53.2167,183.1841,92.5982,267.516,0.00013102,1.798e-05,0.0,0 STARLINK-3274,1 50186U 21125AG  24014.67599506  .00001798  00000-0  13102-3 0  9994,2 50186  53.2167 183.1841 0001309  92.5982 267.5160 15.08840732117947,6917.878,95.438,540.649,538.838,0.0
50186.0,STARLINK-3274,PAYLOAD,2024-01-15 14:28:49,15.08841526,0.0001238,53.2165,179.0206,86.5536,273.5598,0.00010393,1.367e-05,0.0,0 STARLINK-3274,1 50186U 21125AG  24015.60335624  .00001367  00000-0  10393-3 0  9998,2 50186  53.2165 179.0206 0001238  86.5536 273.5598 15.08841526118083,6917.876,95.437,540.597,538.884,0.0
50186.0,STARLINK-3274,PAYLOAD,2024-01-15 16:04:13,15.08841705,0.0001238,53.2166,178.7232,86.9539,273.1595,0.00010468,1.379e-05,0.0,0 STARLINK-3274,1 50186U 21125AG  24015.66959614  .00001379  00000-0  10468-3 0  9991,2 50186  53.2166 178.7232 0001238  86.9539 273.1595 15.08841705118099,6917.875,95.437,540.597,538.884,0.0
50186.0,STARLINK-3274,PAYLOAD,2024-01-16 11:08:51,15.08837819,0.0001387,53.2172,175.1543,94.7297,265.3854,-3.9875e-05,-9.22e-06,0.0,0 STARLINK-3274,1 50186U 21125AG  24016.46448374 -.00000922  00000-0 -39875-4 0  9995,2 50186  53.2172 175.1543 0001387  94.7297 265.3854 15.08837819117748,6917.887,95.438,540.712,538.793,0.0
50186.0,STARLINK-3274,PAYLOAD,2024-01-16 14:19:37,15.08838022,0.0001345,53.217,174.5594,93.687,266.4276,-3.9527e-05,-9.17e-06,0.0,0 STARLINK-3274,1 50186U 21125AG  24016.59696349 -.00000917  00000-0 -39527-4 0  9994,2 50186  53.2170 174.5594 0001345  93.6870 266.4276 15.08838022118236,6917.886,95.438,540.682,538.821,0.0
50186.0,STARLINK-3274,PAYLOAD,2024-01-16 17:30:23,15.08839144,0.000138,53.2174,173.9648,95.4447,264.6703,-3.381e-05,-8.26e-06,0.0,0 STARLINK-3274,1 50186U 21125AG  24016.72944239 -.00000826  00000-0 -33810-4 0  9991,2 50186  53.2174 173.9648 0001380  95.4447 264.6703 15.08839144118255,6917.883,95.438,540.703,538.793,0.0
50186.0,STARLINK-3274,PAYLOAD,2024-01-17 14:10:24,15.08841476,0.0001222,53.2166,170.0985,87.5025,272.6107,4.8259e-05,4.8e-06,0.0,0 STARLINK-3274,1 50186U 21125AG  24017.59055819  .00000480  00000-0  48259-4 0  9991,2 50186  53.2166 170.0985 0001222  87.5025 272.6107 15.08841476118389,6917.876,95.437,540.586,538.896,0.0
50186.0,STARLINK-3274,PAYLOAD,2024-01-17 17:21:09,15.08849841,0.0001315,53.2166,169.5035,92.3595,267.7548,8.0559e-05,9.95e-06,0.0,0 STARLINK-3274,1 50186U 21125AG  24017.72303190  .00000995  00000-0  80559-4 0  9994,2 50186  53.2166 169.5035 0001315  92.3595 267.7548 15.08849841117935,6917.85,95.437,540.625,538.806,0.0
50186.0,STARLINK-3274,PAYLOAD,2024-01-18 12:25:48,15.08832552,0.0001259,53.2171,165.935,82.2263,277.8872,1.4715e-05,-5.4e-07,0.0,0 STARLINK-3274,1 50186U 21125AG  24018.51792802 -.00000054  00000-0  14715-4 0  9992,2 50186  53.2171 165.9350 0001259  82.2263 277.8872 15.08832552118055,6917.903,95.438,540.639,538.897,0.0
50186.0,STARLINK-3274,PAYLOAD,2024-01-18 14:01:12,15.08832978,0.0001244,53.2171,165.6378,83.0428,277.0705,2.0093e-05,3.2e-07,0.0,0 STARLINK-3274,1 50186U 21125AG  24018.58416780  .00000032  00000-0  20093-4 0  9998,2 50186  53.2171 165.6378 0001244  83.0428 277.0705 15.08832978118530,6917.902,95.438,540.627,538.906,0.0
50186.0,STARLINK-3274,PAYLOAD,2024-01-18 17:11:58,15.0883445,0.0001274,53.2171,165.0429,83.1896,276.9241,3.0358e-05,1.95e-06,0.0,0 STARLINK-3274,1 50186U 21125AG  24018.71664718  .00000195  00000-0  30358-4 0  9994,2 50186  53.2171 165.0429 0001274  83.1896 276.9241 15.08834450118556,6917.897,95.438,540.644,538.881,0.0
50186.0,STARLINK-3274,PAYLOAD,2024-01-19 09:05:49,15.08841152,0.0001252,53.2173,162.0689,87.58,272.5335,2.0082e-05,3.2e-07,0.0,0 STARLINK-3274,1 50186U 21125AG  24019.37904478  .00000032  00000-0  20082-4 0  9990,2 50186  53.2173 162.0689 0001252  87.5800 272.5335 15.08841152118184,6917.877,95.437,540.608,538.876,0.0
50186.0,STARLINK-3274,PAYLOAD,2024-01-19 13:51:58,15.08847945,0.0001273,53.2168,161.1783,82.9478,277.1659,5.3092e-05,5.57e-06,0.0,0 STARLINK-3274,1 50186U 21125AG  24019.57775878  .00000557  00000-0  53092-4 0  9991,2 50186  53.2168 161.1783 0001273  82.9478 277.1659 15.08847945118687,6917.856,95.437,540.602,538.84,0.0
50186.0,STARLINK-3274,PAYLOAD,2024-01-19 17:02:44,15.08853786,0.0001405,53.2171,160.5834,76.0907,284.0242,7.6348e-05,9.28e-06,0.0,0 STARLINK-3274,1 50186U 21125AG  24019.71023477  .00000928  00000-0  76348-4 0  9999,2 50186  53.2171 160.5834 0001405  76.0907 284.0242 15.08853786118235,6917.838,95.437,540.675,538.731,0.0
50186.0,STARLINK-3274,PAYLOAD,2024-01-20 13:42:46,15.08836197,0.0001552,53.2177,156.716,76.6513,283.4652,4.826e-05,4.8e-06,0.0,0 STARLINK-3274,1 50186U 21125AG  24020.57136850  .00000480  00000-0  48260-4 0  9990,2 50186  53.2177 156.7160 0001552  76.6513 283.4652 15.08836197118833,6917.892,95.438,540.831,538.683,0.0
50186.0,STARLINK-3274,PAYLOAD,2024-01-20 15:18:09,15.08834062,0.0001626,53.2181,156.423,64.0175,296.0984,8.5849e-05,1.078e-05,0.0,0 STARLINK-3274,1 50186U 21125AG  24020.63760925  .00001078  00000-0  85849-4 0  9991,2 50186  53.2181 156.4230 0001626  64.0175 296.0984 15.08834062118376,6917.899,95.438,540.888,538.639,0.0
50186.0,STARLINK-3274,PAYLOAD,2024-01-21 13:33:32,15.08846706,0.0001477,53.2184,152.257,86.8722,273.244,-8.8689e-06,-4.29e-06,0.0,0 STARLINK-3274,1 50186U 21125AG  24021.56496362 -.00000429  00000-0 -88689-5 0  9992,2 50186  53.2184 152.2570 0001477  86.8722 273.2440 15.08846706118512,6917.86,95.437,540.747,538.703,0.0
50186.0,STARLINK-3274,PAYLOAD,2024-01-21 18:19:41,15.08852136,0.0001499,53.218,151.3616,94.9807,265.1356,4.8172e-06,-2.11e-06,0.0,0 STARLINK-3274,1 50186U 21125AG  24021.76367845 -.00000211  00000-0  48172-5 0  9998,2 50186  53.2180 151.3616 0001499  94.9807 265.1356 15.08852136119013,6917.843,95.437,540.745,538.671,0.0
50186.0,STARLINK-3274,PAYLOAD,2024-01-22 14:59:42,15.08842686,0.0001323,53.2171,147.4978,93.3717,266.7426,8.2317e-05,1.023e-05,0.0,0 STARLINK-3274,1 50186U 21125AG  24022.62480253  .00001023  00000-0  82317-4 0  9992,2 50186  53.2171 147.4978 0001323  93.3717 266.7426 15.08842686118674,6917.872,95.437,540.652,538.822,0.0
